{"type": "FeatureCollection", "features": [ {"type": "Feature", "properties": {"norad_id": 33917, "name": "COSMOS 2251 DEB", "group": "cosmos-2251-debris", "lat": -55.04759967879962, "lon": -52.281064137156584, "alt_km": 808.5742597802655, "timestamp": "2025-12-24T03:53:30.040220+00:00", "meta": {"OBJECT_NAME": "COSMOS 2251 DEB", "OBJECT_ID": "1993-036DW", "EPOCH": "2025-12-23T07:26:53.640384", "MEAN_MOTION": 13.6938158, "ECCENTRICITY": 0.03312166, "INCLINATION": 74.1071, "RA_OF_ASC_NODE": 105.0613, "ARG_OF_PERICENTER": 203.7264, "MEAN_ANOMALY": 154.8283, "EPHEMERIS_TYPE": 0, "CLASSIFICATION_TYPE": "U", "NORAD_CAT_ID": 33917, "ELEMENT_SET_NO": 999, "REV_AT_EPOCH": 83878, "BSTAR": 0.00083836562, "MEAN_MOTION_DOT": 1.049e-05, "MEAN_MOTION_DDOT": 0}, "tle": {"line1": "1 33917U 93036DW  25357.31034306  .00001049  00000+0  83837-3 0  9991", "line2": "2 33917  74.1071 105.0613 0331216 203.7264 154.8283 13.69381580838780"}}, "geometry": {"type": "Point", "coordinates": [-52.281064137156584, -55.04759967879962]}}, {"type": "Feature", "properties": {"norad_id": 33920, "name": "COSMOS 2251 DEB", "group": "cosmos-2251-debris", "lat": 14.039728188362826, "lon": -79.18112296935341, "alt_km": 700.2673931297504, "timestamp": "2025-12-24T03:53:30.040230+00:00", "meta": {"OBJECT_NAME": "COSMOS 2251 DEB", "OBJECT_ID": "1993-036DZ", "EPOCH": "2025-12-23T01:29:04.163136", "MEAN_MOTION": 14.58425135, "ECCENTRICITY": 0.00378205, "INCLINATION": 74.0612, "RA_OF_ASC_NODE": 278.8111, "ARG_OF_PERICENTER": 283.8425, "MEAN_ANOMALY": 75.8533, "EPHEMERIS_TYPE": 0, "CLASSIFICATION_TYPE": "U", "NORAD_CAT_ID": 33920, "ELEMENT_SET_NO": 999, "REV_AT_EPOCH": 88265, "BSTAR": 0.001742781, "MEAN_MOTION_DOT": 8.141e-05, "MEAN_MOTION_DDOT": 0}, "tle": {"line1": "1 33920U 93036DZ  25357.06185374  .00008141  00000+0  17428-2 0  9991", "line2": "2 33920  74.0612 278.8111 0037820 283.8425  75.8533 14.58425135882657"}}, "geometry": {"type": "Point", "coordinates": [-79.18112296935341, 14.039728188362826]}}, {"type": "Feature", "properties": {"norad_id": 33922, "name": "COSMOS 2251 DEB", "group": "cosmos-2251-debris", "lat": 25.791965854207902, "lon": -61.59886318810121, "alt_km": 723.7420374885342, "timestamp": "2025-12-24T03:53:30.040240+00:00", "meta": {"OBJECT_NAME": "COSMOS 2251 DEB", "OBJECT_ID": "1993-036EB", "EPOCH": "2025-12-22T20:27:48.551328", "MEAN_MOTION": 14.49542252, "ECCENTRICITY": 0.00231516, "INCLINATION": 74.0469, "RA_OF_ASC_NODE": 128.8012, "ARG_OF_PERICENTER": 238.3106, "MEAN_ANOMALY": 284.2468, "EPHEMERIS_TYPE": 0, "CLASSIFICATION_TYPE": "U", "NORAD_CAT_ID": 33922, "ELEMENT_SET_NO": 999, "REV_AT_EPOCH": 88724, "BSTAR": 0.00043668701, "MEAN_MOTION_DOT": 1.653e-05, "MEAN_MOTION_DDOT": 0}, "tle": {"line1": "1 33922U 93036EB  25356.85264527  .00001653  00000+0  43669-3 0  9995", "line2": "2 33922  74.0469 128.8012 0023151 238.3106 284.2468 14.49542252887249"}}, "geometry": {"type": "Point", "coordinates": [-61.59886318810121, 25.791965854207902]}}, {"type": "Feature", "properties": {"norad_id": 33924, "name": "COSMOS 2251 DEB", "group": "cosmos-2251-debris", "lat": -31.361603575958988, "lon": -118.28766292839568, "alt_km": 848.2022054646786, "timestamp": "2025-12-24T03:53:30.040256+00:00", "meta": {"OBJECT_NAME": "COSMOS 2251 DEB", "OBJECT_ID": "1993-036ED", "EPOCH": "2025-12-23T01:22:30.954144", "MEAN_MOTION": 13.50237539, "ECCENTRICITY": 0.04038408, "INCLINATION": 73.9132, "RA_OF_ASC_NODE": 253.6169, "ARG_OF_PERICENTER": 287.2487, "MEAN_ANOMALY": 68.4807, "EPHEMERIS_TYPE": 0, "CLASSIFICATION_TYPE": "U", "NORAD_CAT_ID": 33924, "ELEMENT_SET_NO": 999, "REV_AT_EPOCH": 82878, "BSTAR": 0.00045567594, "MEAN_MOTION_DOT": 4.59e-06, "MEAN_MOTION_DDOT": 0}, "tle": {"line1": "1 33924U 93036ED  25357.05730271  .00000459  00000+0  45568-3 0  9997", "line2": "2 33924  73.9132 253.6169 0403840 287.2487  68.4807 13.50237539828781"}}, "geometry": {"type": "Point", "coordinates": [-118.28766292839568, -31.361603575958988]}}, {"type": "Feature", "properties": {"norad_id": 33928, "name": "COSMOS 2251 DEB", "group": "cosmos-2251-debris", "lat": -73.91320097073843, "lon": -59.899136693682344, "alt_km": 714.3890238951126, "timestamp": "2025-12-24T03:53:30.040267+00:00", "meta": {"OBJECT_NAME": "COSMOS 2251 DEB", "OBJECT_ID": "1993-036EH", "EPOCH": "2025-12-23T01:45:47.048544", "MEAN_MOTION": 14.47422954, "ECCENTRICITY": 0.00619525, "INCLINATION": 73.9253, "RA_OF_ASC_NODE": 33.1089, "ARG_OF_PERICENTER": 325.1114, "MEAN_ANOMALY": 34.599, "EPHEMERIS_TYPE": 0, "CLASSIFICATION_TYPE": "U", "NORAD_CAT_ID": 33928, "ELEMENT_SET_NO": 999, "REV_AT_EPOCH": 88794, "BSTAR": 0.00024293721, "MEAN_MOTION_DOT": 8.83e-06, "MEAN_MOTION_DDOT": 0}, "tle": {"line1": "1 33928U 93036EH  25357.07346121  .00000883  00000+0  24294-3 0  9994", "line2": "2 33928  73.9253  33.1089 0061952 325.1114  34.5990 14.47422954887948"}}, "geometry": {"type": "Point", "coordinates": [-59.899136693682344, -73.91320097073843]}}, {"type": "Feature", "properties": {"norad_id": 33932, "name": "COSMOS 2251 DEB", "group": "cosmos-2251-debris", "lat": 49.970797066110755, "lon": -45.22223546870822, "alt_km": 739.2931355573301, "timestamp": "2025-12-24T03:53:30.040277+00:00", "meta": {"OBJECT_NAME": "COSMOS 2251 DEB", "OBJECT_ID": "1993-036EM", "EPOCH": "2025-12-23T12:37:48.561600", "MEAN_MOTION": 14.38788002, "ECCENTRICITY": 0.0035871, "INCLINATION": 74.0343, "RA_OF_ASC_NODE": 296.0229, "ARG_OF_PERICENTER": 9.5935, "MEAN_ANOMALY": 350.5895, "EPHEMERIS_TYPE": 0, "CLASSIFICATION_TYPE": "U", "NORAD_CAT_ID": 33932, "ELEMENT_SET_NO": 999, "REV_AT_EPOCH": 88153, "BSTAR": 0.00043552, "MEAN_MOTION_DOT": 1.322e-05, "MEAN_MOTION_DDOT": 0}, "tle": {"line1": "1 33932U 93036EM  25357.52625650  .00001322  00000+0  43552-3 0  9993", "line2": "2 33932  74.0343 296.0229 0035871   9.5935 350.5895 14.38788002881539"}}, "geometry": {"type": "Point", "coordinates": [-45.22223546870822, 49.970797066110755]}}, {"type": "Feature", "properties": {"norad_id": 33933, "name": "COSMOS 2251 DEB", "group": "cosmos-2251-debris", "lat": 41.93170250995093, "lon": 54.16488571645282, "alt_km": 725.457185729836, "timestamp": "2025-12-24T03:53:30.040288+00:00", "meta": {"OBJECT_NAME": "COSMOS 2251 DEB", "OBJECT_ID": "1993-036EN", "EPOCH": "2025-12-23T19:18:54.872064", "MEAN_MOTION": 14.33504975, "ECCENTRICITY": 0.0070986, "INCLINATION": 74.0889, "RA_OF_ASC_NODE": 39.9697, "ARG_OF_PERICENTER": 45.0776, "MEAN_ANOMALY": 315.6104, "EPHEMERIS_TYPE": 0, "CLASSIFICATION_TYPE": "U", "NORAD_CAT_ID": 33933, "ELEMENT_SET_NO": 999, "REV_AT_EPOCH": 87943, "BSTAR": 0.0002426, "MEAN_MOTION_DOT": 6.65e-06, "MEAN_MOTION_DDOT": 0}, "tle": {"line1": "1 33933U 93036EN  25357.80480176  .00000665  00000+0  24260-3 0  9991", "line2": "2 33933  74.0889  39.9697 0070986  45.0776 315.6104 14.33504975879433"}}, "geometry": {"type": "Point", "coordinates": [54.16488571645282, 41.93170250995093]}}, {"type": "Feature", "properties": {"norad_id": 33934, "name": "COSMOS 2251 DEB", "group": "cosmos-2251-debris", "lat": 43.09742637082299, "lon": -116.72498808844122, "alt_km": 687.736693328402, "timestamp": "2025-12-24T03:53:30.040304+00:00", "meta": {"OBJECT_NAME": "COSMOS 2251 DEB", "OBJECT_ID": "1993-036EP", "EPOCH": "2025-12-23T07:31:50.686176", "MEAN_MOTION": 14.59190051, "ECCENTRICITY": 0.0015224, "INCLINATION": 74.0382, "RA_OF_ASC_NODE": 80.4248, "ARG_OF_PERICENTER": 204.1185, "MEAN_ANOMALY": 155.927, "EPHEMERIS_TYPE": 0, "CLASSIFICATION_TYPE": "U", "NORAD_CAT_ID": 33934, "ELEMENT_SET_NO": 999, "REV_AT_EPOCH": 88893, "BSTAR": 0.00087681, "MEAN_MOTION_DOT": 4.113e-05, "MEAN_MOTION_DDOT": 0}, "tle": {"line1": "1 33934U 93036EP  25357.31378109  .00004113  00000+0  87681-3 0  9998", "line2": "2 33934  74.0382  80.4248 0015224 204.1185 155.9270 14.59190051888939"}}, "geometry": {"type": "Point", "coordinates": [-116.72498808844122, 43.09742637082299]}}, {"type": "Feature", "properties": {"norad_id": 33936, "name": "COSMOS 2251 DEB", "group": "cosmos-2251-debris", "lat": 64.70277356621146, "lon": 158.32411820324296, "alt_km": 675.4907340739628, "timestamp": "2025-12-24T03:53:30.040314+00:00", "meta": {"OBJECT_NAME": "COSMOS 2251 DEB", "OBJECT_ID": "1993-036ER", "EPOCH": "2025-12-23T19:10:08.490432", "MEAN_MOTION": 14.60333945, "ECCENTRICITY": 0.0026784, "INCLINATION": 74.0179, "RA_OF_ASC_NODE": 16.3464, "ARG_OF_PERICENTER": 169.1135, "MEAN_ANOMALY": 191.0617, "EPHEMERIS_TYPE": 0, "CLASSIFICATION_TYPE": "U", "NORAD_CAT_ID": 33936, "ELEMENT_SET_NO": 999, "REV_AT_EPOCH": 89051, "BSTAR": 0.00060551, "MEAN_MOTION_DOT": 2.913e-05, "MEAN_MOTION_DDOT": 0}, "tle": {"line1": "1 33936U 93036ER  25357.79870938  .00002913  00000+0  60551-3 0  9992", "line2": "2 33936  74.0179  16.3464 0026784 169.1135 191.0617 14.60333945890517"}}, "geometry": {"type": "Point", "coordinates": [158.32411820324296, 64.70277356621146]}}, {"type": "Feature", "properties": {"norad_id": 33938, "name": "COSMOS 2251 DEB", "group": "cosmos-2251-debris", "lat": 48.152872443014765, "lon": -12.780589217312427, "alt_km": 740.2180355186338, "timestamp": "2025-12-24T03:53:30.040324+00:00", "meta": {"OBJECT_NAME": "COSMOS 2251 DEB", "OBJECT_ID": "1993-036ET", "EPOCH": "2025-12-23T19:04:08.243040", "MEAN_MOTION": 14.46825021, "ECCENTRICITY": 0.0016787, "INCLINATION": 74.0437, "RA_OF_ASC_NODE": 186.5361, "ARG_OF_PERICENTER": 267.7737, "MEAN_ANOMALY": 107.537, "EPHEMERIS_TYPE": 0, "CLASSIFICATION_TYPE": "U", "NORAD_CAT_ID": 33938, "ELEMENT_SET_NO": 999, "REV_AT_EPOCH": 88560, "BSTAR": 0.00038257, "MEAN_MOTION_DOT": 1.362e-05, "MEAN_MOTION_DDOT": 0}, "tle": {"line1": "1 33938U 93036ET  25357.79453985  .00001362  00000+0  38257-3 0  9998", "line2": "2 33938  74.0437 186.5361 0016787 267.7737 107.5370 14.46825021885604"}}, "geometry": {"type": "Point", "coordinates": [-12.780589217312427, 48.152872443014765]}}]}